[ {"CCSDS_OMM_VERS": "2.0", "COMMENT": "GENERATED VIA SPACE-TRACK.ORG API", "CREATION_DATE": "2021-12-06T02:57:56", "ORIGINATOR": "18 SPCS", "OBJECT_NAME": "ARIANE 42P+ DEB", "OBJECT_ID": "1992-072C", "CENTER_NAME": "EARTH", "REF_FRAME": "TEME", "TIME_SYSTEM": "UTC", "MEAN_ELEMENT_THEORY": "SGP4", "EPOCH": "2021-12-05T14:12:35.434656", "MEAN_MOTION": "3.70051518", "ECCENTRICITY": "0.62545680", "INCLINATION": "6.5469", "RA_OF_ASC_NODE": "173.5767", "ARG_OF_PERICENTER": "78.6543", "MEAN_ANOMALY": "341.5642", "EPHEMERIS_TYPE": "0", "CLASSIFICATION_TYPE": "U", "NORAD_CAT_ID": "22670", "ELEMENT_SET_NO": "999", "REV_AT_EPOCH": "69772", "BSTAR": "0.00186190000000", "MEAN_MOTION_DOT": "0.00020098", "MEAN_MOTION_DDOT": "0.0000000000000", "SEMIMAJOR_AXIS": "17656.057", "PERIOD": "389.135", "APOAPSIS": "22321.022", "PERIAPSIS": "234.821", "OBJECT_TYPE": "DEBRIS", "RCS_SIZE": "LARGE", "COUNTRY_CODE": "FR", "LAUNCH_DATE": "1992-10-28", "SITE": "FRGUI", "DECAY_DATE": null, "FILE": "3233515", "GP_ID": "191153777", "TLE_LINE0": "0 ARIANE 42P+ DEB", "TLE_LINE1": "1 22670U 92072C   21339.59207679  .00020098  00000-0  18619-2 0  9996", "TLE_LINE2": "2 22670   6.5469 173.5767 6254568  78.6543 341.5642  3.70051518697720"}, {"CCSDS_OMM_VERS": "2.0", "COMMENT": "GENERATED VIA SPACE-TRACK.ORG API", "CREATION_DATE": "2021-12-06T02:57:56", "ORIGINATOR": "18 SPCS", "OBJECT_NAME": "ARIANE 44L+ R/B", "OBJECT_ID": "1993-048C", "CENTER_NAME": "EARTH", "REF_FRAME": "TEME", "TIME_SYSTEM": "UTC", "MEAN_ELEMENT_THEORY": "SGP4", "EPOCH": "2021-12-05T12:17:50.322336", "MEAN_MOTION": "2.65274730", "ECCENTRICITY": "0.69615030", "INCLINATION": "6.8187", "RA_OF_ASC_NODE": "115.5569", "ARG_OF_PERICENTER": "10.2842", "MEAN_ANOMALY": "358.5107", "EPHEMERIS_TYPE": "0", "CLASSIFICATION_TYPE": "U", "NORAD_CAT_ID": "22725", "ELEMENT_SET_NO": "999", "REV_AT_EPOCH": "26840", "BSTAR": "0.00031330000000", "MEAN_MOTION_DOT": "0.00000097", "MEAN_MOTION_DDOT": "0.0000000000000", "SEMIMAJOR_AXIS": "22043.028", "PERIOD": "542.833", "APOAPSIS": "31010.154", "PERIAPSIS": "319.632", "OBJECT_TYPE": "ROCKET BODY", "RCS_SIZE": "LARGE", "COUNTRY_CODE": "FR", "LAUNCH_DATE": "1993-07-22", "SITE": "FRGUI", "DECAY_DATE": null, "FILE": "3233515", "GP_ID": "191153279", "TLE_LINE0": "0 ARIANE 44L+ R/B", "TLE_LINE1": "1 22725U 93048C   21339.51238799  .00000097  00000-0  31330-3 0  9993", "TLE_LINE2": "2 22725   6.8187 115.5569 6961503  10.2842 358.5107  2.65274730268404"}, {"CCSDS_OMM_VERS": "2.0", "COMMENT": "GENERATED VIA SPACE-TRACK.ORG API", "CREATION_DATE": "2021-12-06T06:36:11", "ORIGINATOR": "18 SPCS", "OBJECT_NAME": "ARIANE 44LP+ R/B", "OBJECT_ID": "1993-073C", "CENTER_NAME": "EARTH", "REF_FRAME": "TEME", "TIME_SYSTEM": "UTC", "MEAN_ELEMENT_THEORY": "SGP4", "EPOCH": "2021-12-05T22:12:01.893024", "MEAN_MOTION": "8.25316763", "ECCENTRICITY": "0.36053950", "INCLINATION": "6.7574", "RA_OF_ASC_NODE": "281.2384", "ARG_OF_PERICENTER": "193.3874", "MEAN_ANOMALY": "153.7193", "EPHEMERIS_TYPE": "0", "CLASSIFICATION_TYPE": "U", "NORAD_CAT_ID": "22913", "ELEMENT_SET_NO": "999", "REV_AT_EPOCH": "54718", "BSTAR": "0.00096800000000", "MEAN_MOTION_DOT": "0.00039914", "MEAN_MOTION_DDOT": "0.0000000000000", "SEMIMAJOR_AXIS": "10343.195", "PERIOD": "174.478", "APOAPSIS": "7694.191", "PERIAPSIS": "235.930", "OBJECT_TYPE": "ROCKET BODY", "RCS_SIZE": "LARGE", "COUNTRY_CODE": "FR", "LAUNCH_DATE": "1993-11-20", "SITE": "FRGUI", "DECAY_DATE": null, "FILE": "3233575", "GP_ID": "191174501", "TLE_LINE0": "0 ARIANE 44LP+ R/B", "TLE_LINE1": "1 22913U 93073C   21339.92502191  .00039914  00000-0  96800-3 0  9998", "TLE_LINE2": "2 22913   6.7574 281.2384 3605395 193.3874 153.7193  8.25316763547187"}, {"CCSDS_OMM_VERS": "2.0", "COMMENT": "GENERATED VIA SPACE-TRACK.ORG API", "CREATION_DATE": "2021-12-05T20:11:25", "ORIGINATOR": "18 SPCS", "OBJECT_NAME": "ARIANE 44L+ R/B", "OBJECT_ID": "1994-040C", "CENTER_NAME": "EARTH", "REF_FRAME": "TEME", "TIME_SYSTEM": "UTC", "MEAN_ELEMENT_THEORY": "SGP4", "EPOCH": "2021-12-05T06:47:37.135680", "MEAN_MOTION": "2.29712834", "ECCENTRICITY": "0.72041110", "INCLINATION": "7.6994", "RA_OF_ASC_NODE": "68.0441", "ARG_OF_PERICENTER": "76.5543", "MEAN_ANOMALY": "348.3083", "EPHEMERIS_TYPE": "0", "CLASSIFICATION_TYPE": "U", "NORAD_CAT_ID": "23177", "ELEMENT_SET_NO": "999", "REV_AT_EPOCH": "22612", "BSTAR": "-0.00009129100000", "MEAN_MOTION_DOT": "-0.00000112", "MEAN_MOTION_DDOT": "0.0000000000000", "SEMIMAJOR_AXIS": "24263.028", "PERIOD": "626.870", "APOAPSIS": "35364.248", "PERIAPSIS": "405.538", "OBJECT_TYPE": "ROCKET BODY", "RCS_SIZE": "LARGE", "COUNTRY_CODE": "FR", "LAUNCH_DATE": "1994-07-08", "SITE": "FRGUI", "DECAY_DATE": null, "FILE": "3233179", "GP_ID": "191122657", "TLE_LINE0": "0 ARIANE 44L+ R/B", "TLE_LINE1": "1 23177U 94040C   21339.28306870 -.00000112  00000-0 -91291-4 0  9991", "TLE_LINE2": "2 23177   7.6994  68.0441 7204111  76.5543 348.3083  2.29712834226126"}, {"CCSDS_OMM_VERS": "2.0", "COMMENT": "GENERATED VIA SPACE-TRACK.ORG API", "CREATION_DATE": "2021-12-06T07:06:20", "ORIGINATOR": "18 SPCS", "OBJECT_NAME": "ARIANE 44L+3 R/B", "OBJECT_ID": "1995-067C", "CENTER_NAME": "EARTH", "REF_FRAME": "TEME", "TIME_SYSTEM": "UTC", "MEAN_ELEMENT_THEORY": "SGP4", "EPOCH": "2021-12-06T02:36:28.977408", "MEAN_MOTION": "2.89652593", "ECCENTRICITY": "0.67948110", "INCLINATION": "7.0020", "RA_OF_ASC_NODE": "295.2690", "ARG_OF_PERICENTER": "295.2781", "MEAN_ANOMALY": "11.0095", "EPHEMERIS_TYPE": "0", "CLASSIFICATION_TYPE": "U", "NORAD_CAT_ID": "23732", "ELEMENT_SET_NO": "999", "REV_AT_EPOCH": "24878", "BSTAR": "0.00151660000000", "MEAN_MOTION_DOT": "0.00004172", "MEAN_MOTION_DDOT": "0.0000000000000", "SEMIMAJOR_AXIS": "20788.200", "PERIOD": "497.147", "APOAPSIS": "28535.255", "PERIAPSIS": "284.876", "OBJECT_TYPE": "ROCKET BODY", "RCS_SIZE": "LARGE", "COUNTRY_CODE": "FR", "LAUNCH_DATE": "1995-12-06", "SITE": "FRGUI", "DECAY_DATE": null, "FILE": "3233718", "GP_ID": "191177224", "TLE_LINE0": "0 ARIANE 44L+3 R/B", "TLE_LINE1": "1 23732U 95067C   21340.10866872  .00004172  00000-0  15166-2 0  9997", "TLE_LINE2": "2 23732   7.0020 295.2690 6794811 295.2781  11.0095  2.89652593248785"}, {"CCSDS_OMM_VERS": "2.0", "COMMENT": "GENERATED VIA SPACE-TRACK.ORG API", "CREATION_DATE": "2021-12-06T02:57:56", "ORIGINATOR": "18 SPCS", "OBJECT_NAME": "ARIANE 44LP DEB", "OBJECT_ID": "1989-062E", "CENTER_NAME": "EARTH", "REF_FRAME": "TEME", "TIME_SYSTEM": "UTC", "MEAN_ELEMENT_THEORY": "SGP4", "EPOCH": "2021-12-05T11:43:42.486816", "MEAN_MOTION": "2.50585995", "ECCENTRICITY": "0.70444330", "INCLINATION": "7.3908", "RA_OF_ASC_NODE": "68.2559", "ARG_OF_PERICENTER": "121.3637", "MEAN_ANOMALY": "325.2665", "EPHEMERIS_TYPE": "0", "CLASSIFICATION_TYPE": "U", "NORAD_CAT_ID": "25279", "ELEMENT_SET_NO": "999", "REV_AT_EPOCH": "22208", "BSTAR": "0.00028997000000", "MEAN_MOTION_DOT": "0.00000206", "MEAN_MOTION_DDOT": "0.0000000000000", "SEMIMAJOR_AXIS": "22896.230", "PERIOD": "574.653", "APOAPSIS": "32647.191", "PERIAPSIS": "388.999", "OBJECT_TYPE": "DEBRIS", "RCS_SIZE": "LARGE", "COUNTRY_CODE": "FR", "LAUNCH_DATE": "1989-08-08", "SITE": "FRGUI", "DECAY_DATE": null, "FILE": "3233515", "GP_ID": "191156624", "TLE_LINE0": "0 ARIANE 44LP DEB", "TLE_LINE1": "1 25279U 89062E   21339.48868619  .00000206  00000-0  28997-3 0  9994", "TLE_LINE2": "2 25279   7.3908  68.2559 7044433 121.3637 325.2665  2.50585995222088"}, {"CCSDS_OMM_VERS": "2.0", "COMMENT": "GENERATED VIA SPACE-TRACK.ORG API", "CREATION_DATE": "2021-12-06T02:57:56", "ORIGINATOR": "18 SPCS", "OBJECT_NAME": "ARIANE 44P R/B", "OBJECT_ID": "1998-049B", "CENTER_NAME": "EARTH", "REF_FRAME": "TEME", "TIME_SYSTEM": "UTC", "MEAN_ELEMENT_THEORY": "SGP4", "EPOCH": "2021-12-05T11:39:26.570016", "MEAN_MOTION": "3.45698216", "ECCENTRICITY": "0.64250920", "INCLINATION": "3.8356", "RA_OF_ASC_NODE": "149.6410", "ARG_OF_PERICENTER": "86.5561", "MEAN_ANOMALY": "339.7736", "EPHEMERIS_TYPE": "0", "CLASSIFICATION_TYPE": "U", "NORAD_CAT_ID": "25461", "ELEMENT_SET_NO": "999", "REV_AT_EPOCH": "24281", "BSTAR": "0.00205010000000", "MEAN_MOTION_DOT": "0.00023782", "MEAN_MOTION_DDOT": "0.0000000000000", "SEMIMAJOR_AXIS": "18475.821", "PERIOD": "416.548", "APOAPSIS": "23968.571", "PERIAPSIS": "226.801", "OBJECT_TYPE": "ROCKET BODY", "RCS_SIZE": "LARGE", "COUNTRY_CODE": "FR", "LAUNCH_DATE": "1998-08-25", "SITE": "FRGUI", "DECAY_DATE": null, "FILE": "3233515", "GP_ID": "191155631", "TLE_LINE0": "0 ARIANE 44P R/B", "TLE_LINE1": "1 25461U 98049B   21339.48572419  .00023782  00000-0  20501-2 0  9998", "TLE_LINE2": "2 25461   3.8356 149.6410 6425092  86.5561 339.7736  3.45698216242818"}, {"CCSDS_OMM_VERS": "2.0", "COMMENT": "GENERATED VIA SPACE-TRACK.ORG API", "CREATION_DATE": "2021-12-06T09:56:18", "ORIGINATOR": "18 SPCS", "OBJECT_NAME": "ISS (ZARYA)", "OBJECT_ID": "1998-067A", "CENTER_NAME": "EARTH", "REF_FRAME": "TEME", "TIME_SYSTEM": "UTC", "MEAN_ELEMENT_THEORY": "SGP4", "EPOCH": "2021-12-06T09:35:01.394016", "MEAN_MOTION": "15.48946544", "ECCENTRICITY": "0.00039880", "INCLINATION": "51.6435", "RA_OF_ASC_NODE": "211.2046", "ARG_OF_PERICENTER": "277.6071", "MEAN_ANOMALY": "254.8235", "EPHEMERIS_TYPE": "0", "CLASSIFICATION_TYPE": "U", "NORAD_CAT_ID": "25544", "ELEMENT_SET_NO": "999", "REV_AT_EPOCH": "31528", "BSTAR": "0.00009135100000", "MEAN_MOTION_DOT": "0.00004577", "MEAN_MOTION_DDOT": "0.0000000000000", "SEMIMAJOR_AXIS": "6797.944", "PERIOD": "92.966", "APOAPSIS": "422.520", "PERIAPSIS": "417.098", "OBJECT_TYPE": "PAYLOAD", "RCS_SIZE": "LARGE", "COUNTRY_CODE": "ISS", "LAUNCH_DATE": "1998-11-20", "SITE": "TTMTR", "DECAY_DATE": null, "FILE": "3233745", "GP_ID": "191177348", "TLE_LINE0": "0 ISS (ZARYA)", "TLE_LINE1": "1 25544U 98067A   21340.39932169  .00004577  00000-0  91351-4 0  9998", "TLE_LINE2": "2 25544  51.6435 211.2046 0003988 277.6071 254.8235 15.48946544315288"}]